{
  "norad_id": 68571,
  "name": "2026-071A",
  "history": [
    {
      "epoch": "2026-04-03T07:41:47.992704Z",
      "apogee_km": 39714.245899479916,
      "perigee_km": 996.3754323670591,
      "latitude_deg": 0.00076119537961569,
      "longitude_deg": -68.3231490121092,
      "height_km": 4327.669993237752,
      "semi_major_axis_km": 26733.447665923486,
      "eccentricity": 0.7241466,
      "inclination_deg": 62.7917,
      "raan_deg": 238.8364,
      "arg_perigee_deg": 284.9481,
      "mean_anomaly_deg": 10.7459,
      "mean_motion_rev_day": 1.98618778
    }
  ]
}